CUTE-1 (CO-55)          
1 27844U 03031E   26154.54951729  .00000336  00000+0  16425-3 0  9994
2 27844  98.6736 163.2800 0008690 219.4250 140.6297 14.24327019189732
CUBESAT XI-IV (CO-57)   
1 27848U 03031J   26156.49908036  .00000268  00000+0  13675-3 0  9995
2 27848  98.6767 164.9270 0008410 233.7946 126.2455 14.23614506189713
CUBESAT XI-V            
1 28895U 05043F   26156.37597232  .00001533  00000+0  24897-3 0  9996
2 28895  98.2974 311.7509 0012981 240.3240 119.6675 14.72598573100013
SEEDS II (CO-66)        
1 32791U 08021J   26156.44822116  .00019038  00000+0  61158-3 0  9995
2 32791  97.7518 153.7894 0002814  37.2994 322.8442 15.32333038985498
SWISSCUBE               
1 35932U 09051B   26156.46919883  .00001141  00000+0  23506-3 0  9990
2 35932  98.4043  64.1532 0005430 246.3597 113.7034 14.62458715887444
BEESAT-1                
1 35933U 09051C   26156.54100500  .00000964  00000+0  20332-3 0  9994
2 35933  98.3972  63.8860 0003902 263.9063  96.1693 14.61701276887481
ITUPSAT1                
1 35935U 09051E   26155.69953963  .00000958  00000+0  20796-3 0  9997
2 35935  98.4056  62.2366 0006134 280.9538  79.0971 14.60421767886916
TISAT 1                 
1 36799U 10035E   26156.81377528  .00023381  00000+0  77569-3 0  9997
2 36799  98.0705 102.3578 0000242  15.0993 345.0253 15.31259677865968
AEROCUBE 4.5A           
1 38767U 12048K   26156.85369217  .00356874  52882-4  13021-2 0  9998
2 38767  64.6269  68.1366 0019364 214.6632 145.3266 15.87856823370856
STRAND-1                
1 39090U 13009E   26156.49876752  .00000302  00000+0  11583-3 0  9997
2 39090  98.3919 337.0211 0007391 265.4490  94.5853 14.37156205695388
BRITE-AUSTRIA           
1 39091U 13009F   26156.43695210  .00000190  00000+0  79122-4 0  9999
2 39091  98.3993 336.1638 0008963 276.1708  83.8457 14.36537301695369
NEE-01 PEGASO           
1 39151U 13018B   26157.14495218  .00003971  00000+0  38147-3 0  9992
2 39151  98.1213 300.9315 0012335 194.3170 165.7701 14.93606451709052
POPACS 2                
1 39269U 13055E   26156.70090359  .00011134  00000+0  19010-3 0  9999
2 39269  80.9906 157.3383 0417280 230.7002 125.6522 14.90930971661503
POPACS 3                
1 39270U 13055F   26156.50573187  .00012088  00000+0  28492-3 0  9997
2 39270  81.0023 241.8479 0553116 105.5298 260.7651 14.55887656636853
ZACUBE-1 (TSHEPISOSAT)  
1 39417U 13066B   26157.14228711  .00005332  00000+0  41430-3 0  9994
2 39417  97.8103 119.4196 0039943 286.6860  72.9981 15.01117522679079
WNISAT-1                
1 39423U 13066H   26157.16227705  .00000787  00000+0  15245-3 0  9999
2 39423  97.7191 307.1019 0161672 266.6015  91.6681 14.58045873665123
TRITON-1                
1 39427U 13066M   26157.28789137  .00002484  00000+0  30191-3 0  9991
2 39427  97.8249  67.3430 0088431 270.0706  89.0374 14.81665554672477
GOMX-1                  
1 39430U 13066Q   26157.29083986  .00002037  00000+0  30977-3 0  9991
2 39430  97.6489 358.4404 0130087 112.1739 249.3332 14.69417131668312
CUBEBUG-2 (LO-74)       
1 39440U 13066AA  26156.80918561  .00005560  00000+0  51354-3 0  9990
2 39440  97.8908 105.7402 0059434  65.9901 294.7524 14.93668030675299
NEE-02 KRYSAOR          
1 39441U 13066AB  26157.10320968  .00002852  00000+0  31498-3 0  9991
2 39441  97.8890  96.3978 0067671 105.6781 255.1914 14.86571757674556
FUNCUBE-1 (AO-73)       
1 39444U 13066AE  26157.18462752  .00009267  00000+0  57636-3 0  9999
2 39444  97.8278 128.4023 0034655 239.5624 120.2179 15.09358417678007
UWE-3                   
1 39446U 13066AG  26156.85248531  .00005174  00000+0  44473-3 0  9999
2 39446  97.8697 112.8515 0049170 359.4628   0.6532 14.96934199675880
BRITE-CA1 (TORONTO)     
1 40020U 14033L   26156.82691227  .00000812  00000+0  12974-3 0  9990
2 40020  97.9727 285.9652 0077578 313.9957  45.4872 14.72661285640548
DUCHIFAT-1              
1 40021U 14033M   26156.43696292  .00091631  00000+0  10321-2 0  9997
2 40021  98.0469 213.9698 0004709 135.9979 224.1653 15.62240333653912
NANOSATC-BR1            
1 40024U 14033Q   26156.05089345  .00019638  00000+0  65634-3 0  9998
2 40024  98.0722 187.3677 0003176 199.6617 160.4501 15.31055935652125
QB50P1                  
1 40025U 14033R   26156.28625995  .00008026  00000+0  39735-3 0  9993
2 40025  98.0971 166.5996 0007025 264.5036  95.5395 15.18070423651222
QB50P2                  
1 40032U 14033Y   26156.47630529  .00008036  00000+0  43394-3 0  9998
2 40032  98.0754 152.6291 0006766 203.3827 156.7096 15.15001181650895
PERSEUS-M2              
1 40037U 14033AD  26157.29084738  .00002832  00000+0  26104-3 0  9997
2 40037  97.9977 107.6103 0011445 345.2085  14.8799 14.95484909649150
